OBJECT_NAME,OBJECT_ID,EPOCH,MEAN_MOTION,ECCENTRICITY,INCLINATION,RA_OF_ASC_NODE,ARG_OF_PERICENTER,MEAN_ANOMALY,EPHEMERIS_TYPE,CLASSIFICATION_TYPE,NORAD_CAT_ID,ELEMENT_SET_NO,REV_AT_EPOCH,BSTAR,MEAN_MOTION_DOT,MEAN_MOTION_DDOT
AISTECHSAT 2,2018-099L,2026-05-21T14:36:35.216352,15.15139868,.000567,97.4309,190.2278,48.5937,311.5782,0,U,43768,999,40825,.21916E-3,.4044E-4,0
FOX-1CLIFF (AO-95),2018-099N,2026-05-21T14:14:07.007424,15.26058773,.0010395,97.4396,201.9481,85.8622,274.3805,0,U,43770,999,40916,.30248E-3,.7731E-4,0
RANGE-A,2018-099R,2026-05-21T14:18:16.514208,15.13124399,.0012083,97.3983,184.9557,82.2778,277.9825,0,U,43773,999,40847,.19402E-3,.3379E-4,0
SNUSAT-2,2018-099AA,2026-05-21T13:38:26.869056,15.21375889,.0010967,97.4073,195.3675,38.4282,321.7733,0,U,43782,999,40898,.26281E-3,.5832E-4,0
SNUGLITE,2018-099AC,2026-05-21T14:26:16.256256,15.26520754,.0003612,97.3882,196.1536,53.2641,306.8929,0,U,43784,999,40926,.29165E-3,.7547E-4,0
ITASAT,2018-099AE,2026-05-21T14:29:11.644800,15.18666112,.0014361,97.4045,193.6506,87.3963,272.8916,0,U,43786,999,40887,.22729E-3,.4655E-4,0
EAGLET-I,2018-099AJ,2026-05-21T03:10:43.957344,15.12703873,.00128502,97.4247,191.5196,81.8339,278.4349,0,U,43790,999,40824,.15344063E-3,.2627E-4,0
ESEO,2018-099AL,2026-05-21T02:32:14.565696,15.04156075,.00137014,97.4000,179.6526,69.9510,290.3190,0,U,43792,999,40773,.80377102E-4,.1059E-4,0
THEA,2018-099AQ,2026-05-21T17:27:24.742080,15.34007666,.0007498,97.4447,211.1804,32.2705,327.8995,0,U,43796,999,40863,.36674E-3,.12002E-3,0
ASTROCAST 0.1,2018-099AS,2026-05-21T16:53:26.918592,15.47610294,.0003271,97.4376,219.4125,318.2073,41.8926,0,U,43798,999,41033,.44193E-3,.2273E-3,0
JY1SAT (JO-97),2018-099AX,2026-05-21T17:29:01.000320,15.32706710,.0005467,97.4140,204.4876,22.6895,337.4587,0,U,43803,999,40957,.3584E-3,.11251E-3,0
SUOMI-100,2018-099AY,2026-05-21T18:01:24.241728,15.27727213,.001013,97.4200,202.2537,24.1732,335.9981,0,U,43804,999,40938,.30346E-3,.8159E-4,0
CENTAURI-1,2018-099BD,2026-05-21T14:38:11.782176,15.16054393,.0015645,97.4237,193.9034,64.7761,295.5091,0,U,43809,999,40847,.20317E-3,.3853E-4,0
GLOBAL-2,2018-099BG,2026-05-21T16:13:06.955680,15.08493173,.0004381,97.3572,179.2929,234.7176,125.3643,0,U,43812,999,40791,.99515E-4,.1492E-4,0
SEAHAWK-1,2018-099BQ,2026-05-21T09:18:41.416704,15.22306852,.0009373,97.3972,194.2893,53.2172,306.9923,0,U,43820,999,40845,.26265E-3,.5989E-4,0
SAUDISAT 5A,2018-102A,2026-05-21T18:31:12.060768,15.27739185,.0008663,97.3076,203.8653,218.8880,141.1737,0,U,43831,999,41164,.13979E-3,.3718E-4,0
SAUDISAT 5B,2018-102C,2026-05-21T17:30:37.185984,15.28011225,.0009277,97.3182,206.8456,222.3000,137.7525,0,U,43833,999,41175,.12891E-3,.3452E-4,0
ISAT,2018-111D,2026-05-21T18:47:48.448032,15.60515348,.0007053,97.5897,75.0721,65.3868,294.8123,0,U,43879,999,40704,.69351E-3,.57382E-3,0
UWE-4,2018-111E,2026-05-21T17:30:25.782048,15.44310525,.0010233,97.5858,68.9379,68.3750,291.8587,0,U,43880,999,40669,.47342E-3,.21785E-3,0
D-STAR ONE (SPARROW),2018-111F,2026-05-21T18:07:50.071296,15.67192169,.0007149,97.6125,80.2411,94.7948,265.4129,0,U,43881,999,40722,.73869E-3,.79646E-3,0
JILIN-1 09,2019-005B,2026-05-21T17:20:22.017120,15.20245831,.0002876,97.4723,236.9185,149.9006,210.2394,0,U,43943,999,40512,.14904E-3,.3164E-4,0
JILIN-1 10,2019-005E,2026-05-21T18:12:41.618592,15.25394946,.0008405,97.4765,240.5726,23.4786,336.6834,0,U,43946,999,40528,.16319E-3,.405E-4,0
EGYPTSAT-A (MISRSAT-A),2019-008A,2026-05-21T18:34:19.878816,14.72272456,.0001208,98.0043,206.9218,79.9927,280.1417,0,U,44047,999,38935,.81853E-4,.468E-5,0
EMISAT,2019-018A,2026-05-21T17:42:54.058752,14.43673221,.0017383,98.4652,200.6807,299.6996,60.2463,0,U,44078,999,37624,.54412E-4,.141E-5,0
JILIN-1 GAOFEN 3A,2019-032C,2026-05-21T11:40:59.958048,15.31969734,.0003948,44.9729,143.8129,159.6736,200.4306,0,U,44312,999,38374,.24501E-3,.7409E-4,0
WT 1B,2019-032G,2026-05-21T15:18:23.126688,15.26620198,.0007522,44.9725,205.7953,98.5608,261.6126,0,U,44316,999,38302,.31487E-3,.8123E-4,0
PROX-1,2019-036A,2026-05-21T13:00:40.789728,14.89902593,.0006798,23.9960,292.1475,81.8956,278.2314,0,U,44339,999,36949,.8987E-3,.9146E-4,0
NPSAT1,2019-036B,2026-05-21T09:13:48.766080,14.74296294,.0007594,24.0000,32.2820,267.1508,92.8118,0,U,44340,999,36853,.50859E-3,.3689E-4,0
