AISTECHSAT 2            
1 43768U 18099L   26141.60874093  .00004044  00000+0  21916-3 0  9999
2 43768  97.4309 190.2278 0005670  48.5937 311.5782 15.15139868408258
FOX-1CLIFF (AO-95)      
1 43770U 18099N   26141.59313666  .00007731  00000+0  30248-3 0  9998
2 43770  97.4396 201.9481 0010395  85.8622 274.3805 15.26058773409168
RANGE-A                 
1 43773U 18099R   26141.59602447  .00003379  00000+0  19402-3 0  9992
2 43773  97.3983 184.9557 0012083  82.2778 277.9825 15.13124399408473
SNUSAT-2                
1 43782U 18099AA  26141.56836654  .00005832  00000+0  26281-3 0  9997
2 43782  97.4073 195.3675 0010967  38.4282 321.7733 15.21375889408986
SNUGLITE                
1 43784U 18099AC  26141.60157704  .00007547  00000+0  29165-3 0  9995
2 43784  97.3882 196.1536 0003612  53.2641 306.8929 15.26520754409264
ITASAT                  
1 43786U 18099AE  26141.60360700  .00004655  00000+0  22729-3 0  9995
2 43786  97.4045 193.6506 0014361  87.3963 272.8916 15.18666112408879
EAGLET-I                
1 43790U 18099AJ  26141.13245321  .00002627  00000+0  15344-3 0  9991
2 43790  97.4247 191.5196 0012850  81.8339 278.4349 15.12703873408240
ESEO                    
1 43792U 18099AL  26141.10572414  .00001059  00000+0  80377-4 0  9993
2 43792  97.4000 179.6526 0013701  69.9510 290.3190 15.04156075407734
THEA                    
1 43796U 18099AQ  26141.72736970  .00012002  00000+0  36674-3 0  9994
2 43796  97.4447 211.1804 0007498  32.2705 327.8995 15.34007666408632
ASTROCAST 0.1           
1 43798U 18099AS  26141.70378378  .00022730  00000+0  44193-3 0  9992
2 43798  97.4376 219.4125 0003271 318.2073  41.8926 15.47610294410330
JY1SAT (JO-97)          
1 43803U 18099AX  26141.72848380  .00011251  00000+0  35840-3 0  9991
2 43803  97.4140 204.4876 0005467  22.6895 337.4587 15.32706710409574
SUOMI-100               
1 43804U 18099AY  26141.75097502  .00008159  00000+0  30346-3 0  9996
2 43804  97.4200 202.2537 0010130  24.1732 335.9981 15.27727213409387
CENTAURI-1              
1 43809U 18099BD  26141.60985859  .00003853  00000+0  20317-3 0  9999
2 43809  97.4237 193.9034 0015645  64.7761 295.5091 15.16054393408470
GLOBAL-2                
1 43812U 18099BG  26141.67577495  .00001492  00000+0  99515-4 0  9997
2 43812  97.3572 179.2929 0004381 234.7176 125.3643 15.08493173407914
SEAHAWK-1               
1 43820U 18099BQ  26141.38797936  .00005989  00000+0  26265-3 0  9994
2 43820  97.3972 194.2893 0009373  53.2172 306.9923 15.22306852408451
SAUDISAT 5A             
1 43831U 18102A   26141.77166737  .00003718  00000+0  13979-3 0  9999
2 43831  97.3076 203.8653 0008663 218.8880 141.1737 15.27739185411646
SAUDISAT 5B             
1 43833U 18102C   26141.72959706  .00003452  00000+0  12891-3 0  9999
2 43833  97.3182 206.8456 0009277 222.3000 137.7525 15.28011225411753
ISAT                    
1 43879U 18111D   26141.78319963  .00057382  00000+0  69351-3 0  9994
2 43879  97.5897  75.0721 0007053  65.3868 294.8123 15.60515348407043
UWE-4                   
1 43880U 18111E   26141.72946507  .00021785  00000+0  47342-3 0  9994
2 43880  97.5858  68.9379 0010233  68.3750 291.8587 15.44310525406692
D-STAR ONE (SPARROW)    
1 43881U 18111F   26141.75544064  .00079646  00000+0  73869-3 0  9992
2 43881  97.6125  80.2411 0007149  94.7948 265.4129 15.67192169407225
JILIN-1 09              
1 43943U 19005B   26141.72247705  .00003164  00000+0  14904-3 0  9990
2 43943  97.4723 236.9185 0002876 149.9006 210.2394 15.20245831405127
JILIN-1 10              
1 43946U 19005E   26141.75881503  .00004050  00000+0  16319-3 0  9993
2 43946  97.4765 240.5726 0008405  23.4786 336.6834 15.25394946405289
EGYPTSAT-A (MISRSAT-A)  
1 44047U 19008A   26141.77384119  .00000468  00000+0  81853-4 0  9997
2 44047  98.0043 206.9218 0001208  79.9927 280.1417 14.72272456389358
EMISAT                  
1 44078U 19018A   26141.73812568  .00000141  00000+0  54412-4 0  9991
2 44078  98.4652 200.6807 0017383 299.6996  60.2463 14.43673221376240
JILIN-1 GAOFEN 3A       
1 44312U 19032C   26141.48680507  .00007409  00000+0  24501-3 0  9995
2 44312  44.9729 143.8129 0003948 159.6736 200.4306 15.31969734383748
WT 1B                   
1 44316U 19032G   26141.63776767  .00008123  00000+0  31487-3 0  9995
2 44316  44.9725 205.7953 0007522  98.5608 261.6126 15.26620198383024
PROX-1                  
1 44339U 19036A   26141.54213877  .00009146  00000+0  89870-3 0  9997
2 44339  23.9960 292.1475 0006798  81.8956 278.2314 14.89902593369499
NPSAT1                  
1 44340U 19036B   26141.38459220  .00003689  00000+0  50859-3 0  9996
2 44340  24.0000  32.2820 0007594 267.1508  92.8118 14.74296294368536
